STARLINK-32076          
1 60350U 24136X   26068.39570503  .00000232  00000+0  19949-4 0  9996
2 60350  53.1608  76.7329 0001041 104.3271 255.7846 15.30191806 89623
TEVEL2-1                
1 63217U 25052H   26068.64782323  .00020683  00000+0  70600-3 0  9994
2 63217  97.3991 324.7682 0004767 104.8919 255.2849 15.30341923 54855
