[{"OBJECT_NAME":"STARLINK-32076","OBJECT_ID":"2024-136X","EPOCH":"2026-03-09T09:29:48.914592","MEAN_MOTION":15.30191806,"ECCENTRICITY":0.00010419,"INCLINATION":53.1608,"RA_OF_ASC_NODE":76.7329,"ARG_OF_PERICENTER":104.3271,"MEAN_ANOMALY":255.7846,"EPHEMERIS_TYPE":0,"CLASSIFICATION_TYPE":"U","NORAD_CAT_ID":60350,"ELEMENT_SET_NO":999,"REV_AT_EPOCH":8962,"BSTAR":1.9949131e-5,"MEAN_MOTION_DOT":2.32e-6,"MEAN_MOTION_DDOT":0},{"OBJECT_NAME":"TEVEL2-1","OBJECT_ID":"2025-052H","EPOCH":"2026-03-09T15:32:51.927072","MEAN_MOTION":15.30341923,"ECCENTRICITY":0.0004767,"INCLINATION":97.3991,"RA_OF_ASC_NODE":324.7682,"ARG_OF_PERICENTER":104.8919,"MEAN_ANOMALY":255.2849,"EPHEMERIS_TYPE":0,"CLASSIFICATION_TYPE":"U","NORAD_CAT_ID":63217,"ELEMENT_SET_NO":999,"REV_AT_EPOCH":5485,"BSTAR":0.000706,"MEAN_MOTION_DOT":0.00020683,"MEAN_MOTION_DDOT":0}]
